     2.100          NAVIGATION                              RINEX VERSION / TYPE
fic2rin                                 03/30/2011 00:06:22 PGM / RUN BY / DATE
                                                            END OF HEADER
15 11  3 29 16  0  0.0 -.139417592436D-03  .306954461848D-11  .000000000000D+00
     .750000000000D+02  .153125000000D+01  .468769526132D-08  .124822948369D+01
     .271946191788D-06  .339968828484D-02  .955536961555D-05  .515359361458D+04
     .230400000000D+06  .484287738800D-07  .221159497859D+01  .167638063431D-07
     .950419685160D+00  .186250000000D+03 -.679941896709D-01 -.811498087867D-08
    -.412160025262D-09  .100000000000D+01  .162900000000D+04  .000000000000D+00
     .240000000000D+01  .000000000000D+00 -.977888703346D-08  .750000000000D+02
     .223206000000D+06  .400000000000D+01
16 11  3 29 16  0  0.0 -.161266885698D-03 -.284217094304D-11  .000000000000D+00
     .520000000000D+02 -.342187500000D+02  .438625413366D-08  .309548097249D+01
    -.168941915035D-05  .630338746123D-02  .376440584660D-05  .515377435493D+04
     .230400000000D+06 -.186264514923D-07 -.192616249837D+01  .521540641785D-07
     .975230386649D+00  .316500000000D+03 -.152995303794D+00 -.815676833357D-08
    -.353586156854D-10  .100000000000D+01  .162900000000D+04  .000000000000D+00
     .240000000000D+01  .000000000000D+00 -.977888703346D-08  .520000000000D+02
     .223206000000D+06  .400000000000D+01
17 11  3 29 16  0  0.0  .184177886695D-03  .227373675443D-12  .000000000000D+00
     .710000000000D+02 -.595000000000D+02  .433446626220D-08  .201286962659D+01
    -.300630927086D-05  .623341696337D-02  .995211303234D-05  .515374172211D+04
     .230400000000D+06 -.160187482834D-06 -.883039232048D+00 -.689178705215D-07
     .961054097498D+00  .185812500000D+03 -.241733472726D+01 -.794247369305D-08
    -.278583032673D-10  .100000000000D+01  .162900000000D+04  .000000000000D+00
     .240000000000D+01  .000000000000D+00 -.102445483208D-07  .710000000000D+02
     .223206000000D+06  .400000000000D+01
18 11  3 29 16  0  0.0  .129063148052D-03  .204636307899D-11  .000000000000D+00
     .490000000000D+02 -.493750000000D+01  .548629995499D-08 -.291102669942D+01
    -.299885869026D-06  .120436542202D-01  .511482357979D-05  .515376660919D+04
     .230400000000D+06  .968575477600D-07  .119947217083D+01 -.210478901863D-06
     .933478698815D+00  .265031250000D+03 -.226898085730D+01 -.842427947648D-08
    -.165364030933D-09  .100000000000D+01  .162900000000D+04  .000000000000D+00
     .240000000000D+01  .000000000000D+00 -.107102096081D-07  .490000000000D+02
     .223206000000D+06  .400000000000D+01
19 11  3 29 16  0  0.0 -.125066842884D-03 -.386535248253D-11  .000000000000D+00
     .300000000000D+02 -.622812500000D+02  .446875757026D-08  .133428099640D+01
    -.318139791489D-05  .713587598875D-02  .964477658272D-05  .515364220619D+04
     .230400000000D+06  .353902578354D-07 -.828832170450D+00  .875443220139D-07
     .958622429215D+00  .192593750000D+03 -.991558559537D-02 -.798997567170D-08
    -.119290683221D-09  .100000000000D+01  .162900000000D+04  .000000000000D+00
     .240000000000D+01  .000000000000D+00 -.149011611938D-07  .300000000000D+02
     .223206000000D+06  .400000000000D+01
20 11  3 29 16  0  0.0  .487933866680D-04  .113686837722D-12  .000000000000D+00
     .890000000000D+02  .906250000000D+00  .557523223080D-08 -.252639012499D+01
     .108033418655D-06  .469767116010D-02  .464916229248D-05  .515369174957D+04
     .230400000000D+06  .968575477600D-07  .114551612110D+01  .372529029846D-08
     .933627815517D+00  .276593750000D+03  .128246628277D+01 -.858750056101D-08
    -.560737642688D-10  .100000000000D+01  .162900000000D+04  .000000000000D+00
     .240000000000D+01  .000000000000D+00 -.791624188423D-08  .890000000000D+02
     .223206000000D+06  .400000000000D+01
22 11  3 29 16  0  0.0  .151047948748D-03 -.682121026330D-12  .000000000000D+00
     .560000000000D+02 -.259375000000D+01  .558523264736D-08  .257919847598D+01
    -.173225998878D-06  .544273352716D-02  .512413680553D-05  .515370370865D+04
     .230400000000D+06  .614672899246D-07  .120372509605D+01 -.689178705215D-07
     .931172123194D+00  .265375000000D+03 -.196722845798D+01 -.853285542768D-08
    -.183936233111D-09  .100000000000D+01  .162900000000D+04  .000000000000D+00
     .340000000000D+01  .000000000000D+00 -.172294676304D-07  .560000000000D+02
     .223206000000D+06  .400000000000D+01
23 11  3 29 16  0  0.0  .316891819239D-03 -.250111042988D-11  .000000000000D+00
     .900000000000D+01 -.123750000000D+02  .436768193148D-08  .903979100575D+00
    -.551342964172D-06  .707520346623D-02  .933744013309D-05  .515357631683D+04
     .230400000000D+06  .577419996262D-07  .224107261111D+01  .875443220139D-07
     .964895006470D+00  .197562500000D+03  .313058833364D+01 -.799676166865D-08
    -.407874132452D-09  .100000000000D+01  .162900000000D+04  .000000000000D+00
     .240000000000D+01  .000000000000D+00 -.200234353542D-07  .900000000000D+01
     .223206000000D+06  .400000000000D+01
24 11  3 29 16  0  0.0  .377286691219D-03  .306954461848D-11  .000000000000D+00
     .420000000000D+02  .352812500000D+02  .494734893408D-08  .179228413697D+00
     .179931521416D-05  .597634736914D-02  .840611755848D-05  .515372324562D+04
     .230400000000D+06  .558793544769D-07  .188681383634D+00 -.651925802231D-07
     .948883428072D+00  .213125000000D+03 -.299199756494D+00 -.829141679936D-08
     .358229207399D-09  .100000000000D+01  .162900000000D+04  .000000000000D+00
     .340000000000D+01  .000000000000D+00 -.139698386192D-08  .420000000000D+02
     .223206000000D+06  .400000000000D+01
25 11  3 29 16  0  0.0 -.888016074896D-06 -.454747350886D-12  .000000000000D+00
     .330000000000D+02 -.375937500000D+02  .463733602080D-08 -.253230698786D+01
    -.188872218132D-05  .558338710107D-03  .392086803913D-05  .515367596817D+04
     .230400000000D+06 -.819563865662D-07 -.197309265287D+01  .502914190292D-07
     .962979612218D+00  .306125000000D+03  .858566071112D+00 -.829891711178D-08
    -.478591363823D-10  .100000000000D+01  .162900000000D+04  .000000000000D+00
     .240000000000D+01  .000000000000D+00  .465661287308D-08  .330000000000D+02
     .223206000000D+06  .400000000000D+01
26 11  3 29 16  0  0.0 -.158115755767D-03 -.102318153949D-10  .000000000000D+00
     .102000000000D+03  .107187500000D+02  .392802076069D-08  .573008553821D+00
     .784173607826D-06  .204325836385D-01  .100098550320D-04  .515364727783D+04
     .230400000000D+06 -.266358256340D-06  .230476508432D+01  .782310962677D-07
     .987822828523D+00  .205468750000D+03  .113160775662D+01 -.799783314185D-08
    -.451447376024D-09  .100000000000D+01  .162900000000D+04  .000000000000D+00
     .240000000000D+01  .000000000000D+00 -.651925802231D-08  .102000000000D+03
     .223206000000D+06  .400000000000D+01
27 11  3 29 16  0  0.0  .250440090895D-03  .386535248253D-11  .000000000000D+00
     .660000000000D+02  .560312500000D+02  .402766776853D-08  .157566331188D+01
     .249408185482D-05  .216741522308D-01  .694580376148D-05  .515369369698D+04
     .230400000000D+06  .443309545517D-06 -.305310249155D+01 -.344589352608D-06
     .980973223712D+00  .247968750000D+03 -.127193876586D+01 -.779711049523D-08
     .152506352502D-09  .100000000000D+01  .162900000000D+04  .000000000000D+00
     .240000000000D+01  .000000000000D+00 -.419095158577D-08  .660000000000D+02
     .223206000000D+06  .400000000000D+01
28 11  3 29 16  0  0.0  .281250104308D-04  .227373675443D-11  .000000000000D+00
     .520000000000D+02 -.370312500000D+02  .424160525131D-08  .266364562253D+01
    -.203214585781D-05  .169746790780D-01  .384263694286D-05  .515369475365D+04
     .230400000000D+06  .108033418655D-06 -.191885236548D+01 -.169500708580D-06
     .973512104515D+00  .309781250000D+03 -.189472496084D+01 -.785104131310D-08
    -.600024993449D-10  .100000000000D+01  .162900000000D+04  .000000000000D+00
     .240000000000D+01  .000000000000D+00 -.107102096081D-07  .520000000000D+02
     .223206000000D+06  .400000000000D+01
29 11  3 29 16  0  0.0  .195944681764D-03  .272848410532D-11  .000000000000D+00
     .360000000000D+02 -.627812500000D+02  .433768068181D-08 -.140081441117D+01
    -.318326056004D-05  .270295573864D-02  .106487423182D-04  .515355591202D+04
     .230400000000D+06 -.428408384323D-07 -.874678261700D+00  .521540641785D-07
     .961483532711D+00  .174437500000D+03 -.125549244039D+01 -.795818863336D-08
     .146434671020D-10  .100000000000D+01  .162900000000D+04  .000000000000D+00
     .240000000000D+01  .000000000000D+00 -.884756445885D-08  .360000000000D+02
     .223206000000D+06  .400000000000D+01
30 11  3 29 16  0  0.0  .332891941071D-03  .284217094304D-11  .000000000000D+00
     .400000000000D+02 -.268750000000D+02  .474769776067D-08  .179066296919D+01
    -.161677598953D-05  .125943128951D-01  .331737101078D-05  .515365594673D+04
     .230400000000D+06  .152736902237D-06 -.200213145533D+01 -.249594449997D-06
     .959613186095D+00  .316187500000D+03  .152002013579D+01 -.837034865862D-08
     .142863093678D-10  .100000000000D+01  .162900000000D+04  .000000000000D+00
     .340000000000D+01  .000000000000D+00 -.791624188423D-08  .400000000000D+02
     .223206000000D+06  .400000000000D+01
31 11  3 29 16  0  0.0  .594705343246D-04  .500222085975D-11  .000000000000D+00
     .770000000000D+02  .625312500000D+02  .409124184522D-08 -.830613934450D+00
     .318326056004D-05  .779889000114D-02  .780075788498D-05  .515362892342D+04
     .230400000000D+06 -.115483999252D-06 -.299748036100D+01 -.298023223877D-07
     .979598175807D+00  .242781250000D+03 -.970318399279D+00 -.804497796277D-08
     .315727437029D-09  .100000000000D+01  .162900000000D+04  .000000000000D+00
     .340000000000D+01  .000000000000D+00 -.130385160446D-07  .770000000000D+02
     .223206000000D+06  .400000000000D+01
